STARLINK-38077          
1 69983U 26159J   26203.83335648  .00038790  00000+0  20251-3 0  9990
2 69983  97.2859  42.9585 0001242  96.0567 154.9287 15.80799270  3087
STARLINK-38068          
1 69984U 26159K   26203.83335648  .00008981  00000+0  47582-4 0  9997
2 69984  97.2855  42.9595 0001181 100.0576 155.1976 15.80813786  3080
STARLINK-38089          
1 69985U 26159L   26203.83335648  .00032618  00000+0  17050-3 0  9998
2 69985  97.2857  42.9622 0001343  93.8800 165.6542 15.80801673  3080
STARLINK-38073          
1 69986U 26159M   26203.83335648  .00050116  00000+0  26113-3 0  9992
2 69986  97.2858  42.9633 0001098  63.9922 199.8182 15.80795172  3089
STARLINK-38099          
1 69987U 26159N   26203.83335648 -.02268071  00000+0 -13590-1 0  9991
2 69987  97.2854  42.9646 0001649 106.6668 161.3976 15.80791379  3084
STARLINK-38064          
1 69988U 26159P   26203.83335648  .00058485  00000+0  30439-3 0  9997
2 69988  97.2856  42.9692 0001285  98.7367 177.8981 15.80789832  3080
STARLINK-38080          
1 69989U 26159Q   26203.83335648  .00020275  00000+0  10637-3 0  9992
2 69989  97.2855  42.9667 0001157  97.2889 175.0600 15.80811224  3082
STARLINK-38070          
1 69990U 26159R   26203.83335648  .00075670  00000+0  39289-3 0  9997
2 69990  97.2853  42.9701 0001363  88.2033 192.7011 15.80786770  3080
STARLINK-38042          
1 69991U 26159S   26203.83335648  .00045734  00000+0  23847-3 0  9999
2 69991  97.2851  42.9723 0001310 106.4760 178.7040 15.80795842  3081
STARLINK-38071          
1 69992U 26159T   26203.83335648  .00034930  00000+0  18250-3 0  9998
2 69992  97.2852  42.9747 0001194  94.8035 194.6478 15.80800555  3084
STARLINK-38082          
1 69993U 26159U   26203.83335648  .00014919  00000+0  78519-4 0  9999
2 69993  97.2854  42.9753 0001154 102.9374 190.7861 15.80809745  3080
STARLINK-38090          
1 69994U 26159V   26203.83335648  .00018331  00000+0  96271-4 0  9997
2 69994  97.2853  42.9774 0001256  97.4249 200.5682 15.80808464  3083
STARLINK-38084          
1 69995U 26159W   26203.83335648 -.02213610  00000+0 -14821-1 0  9997
2 69995  97.2851  42.9778 0001377  85.8290 214.1179 15.78286228  3084
STARLINK-38085          
1 69996U 26159X   26203.83335648  .00015927  00000+0  83760-4 0  9996
2 69996  97.2853  42.9814 0001273 101.3106 205.2299 15.80810458  3088
STARLINK-38091          
1 69997U 26159Y   26203.83335648  .00009363  00000+0  49583-4 0  9999
2 69997  97.2852  42.9831 0001235  93.8166 217.0027 15.80808976  3088
STARLINK-38086          
1 69998U 26159Z   26203.83335648  .00010202  00000+0  53950-4 0  9997
2 69998  97.2854  42.9855 0001533 104.3461 210.7462 15.80812028  3080
